{"fetched_at":"2026-07-22T07:09:50.681Z","source":"https://celestrak.org/NORAD/elements/gp.php?NAME=JILIN&FORMAT=JSON","constellation":"jilin-1-kuanfu","records":[{"OBJECT_NAME":"JILIN-1 KUANFU 01","OBJECT_ID":"2020-003A","EPOCH":"2026-07-21T14:14:29.899104","CLASSIFICATION_TYPE":"U","MEAN_MOTION":15.10891044,"ECCENTRICITY":0.00098772,"INCLINATION":97.5015,"RA_OF_ASC_NODE":275.8781,"ARG_OF_PERICENTER":174.9761,"MEAN_ANOMALY":185.157,"EPHEMERIS_TYPE":0,"NORAD_CAT_ID":45016,"ELEMENT_SET_NO":999,"REV_AT_EPOCH":36052,"BSTAR":0.00012297555,"MEAN_MOTION_DOT":0.00001986,"MEAN_MOTION_DDOT":0},{"OBJECT_NAME":"JILIN-1 KUANFU-01B","OBJECT_ID":"2021-061A","EPOCH":"2026-07-21T15:16:43.500576","CLASSIFICATION_TYPE":"U","MEAN_MOTION":15.09821381,"ECCENTRICITY":0.00054337,"INCLINATION":97.5188,"RA_OF_ASC_NODE":278.1894,"ARG_OF_PERICENTER":311.3984,"MEAN_ANOMALY":48.6778,"EPHEMERIS_TYPE":0,"NORAD_CAT_ID":49003,"ELEMENT_SET_NO":999,"REV_AT_EPOCH":27854,"BSTAR":0.000066364469,"MEAN_MOTION_DOT":0.0000101,"MEAN_MOTION_DDOT":0},{"OBJECT_NAME":"JILIN-1 KUANFU 01C","OBJECT_ID":"2022-048A","EPOCH":"2026-07-21T15:06:19.485216","CLASSIFICATION_TYPE":"U","MEAN_MOTION":15.09622372,"ECCENTRICITY":0.00178693,"INCLINATION":97.5246,"RA_OF_ASC_NODE":279.1737,"ARG_OF_PERICENTER":197.1415,"MEAN_ANOMALY":162.9213,"EPHEMERIS_TYPE":0,"NORAD_CAT_ID":52443,"ELEMENT_SET_NO":999,"REV_AT_EPOCH":23239,"BSTAR":0.00014151533,"MEAN_MOTION_DOT":0.00002219,"MEAN_MOTION_DDOT":0},{"OBJECT_NAME":"JILIN-1 KUANFU 02A","OBJECT_ID":"2023-127A","EPOCH":"2026-07-21T13:51:15.839424","CLASSIFICATION_TYPE":"U","MEAN_MOTION":15.10846256,"ECCENTRICITY":0.00107384,"INCLINATION":97.5563,"RA_OF_ASC_NODE":295.9629,"ARG_OF_PERICENTER":212.5259,"MEAN_ANOMALY":147.531,"EPHEMERIS_TYPE":0,"NORAD_CAT_ID":57696,"ELEMENT_SET_NO":999,"REV_AT_EPOCH":16082,"BSTAR":0.00019531057,"MEAN_MOTION_DOT":0.00003187,"MEAN_MOTION_DDOT":0},{"OBJECT_NAME":"JILIN-01 KUANFU 02B 1","OBJECT_ID":"2024-169A","EPOCH":"2026-07-21T14:21:44.453952","CLASSIFICATION_TYPE":"U","MEAN_MOTION":15.09084274,"ECCENTRICITY":0.00011158,"INCLINATION":97.5569,"RA_OF_ASC_NODE":291.5949,"ARG_OF_PERICENTER":297.8521,"MEAN_ANOMALY":62.2594,"EPHEMERIS_TYPE":0,"NORAD_CAT_ID":61189,"ELEMENT_SET_NO":999,"REV_AT_EPOCH":10101,"BSTAR":0.00022148263,"MEAN_MOTION_DOT":0.00003446,"MEAN_MOTION_DDOT":0},{"OBJECT_NAME":"JILIN-01 KUANFU 02B 2","OBJECT_ID":"2024-169B","EPOCH":"2026-07-21T13:52:37.607520","CLASSIFICATION_TYPE":"U","MEAN_MOTION":15.0904797,"ECCENTRICITY":0.00049152,"INCLINATION":97.5565,"RA_OF_ASC_NODE":290.9588,"ARG_OF_PERICENTER":249.617,"MEAN_ANOMALY":110.4531,"EPHEMERIS_TYPE":0,"NORAD_CAT_ID":61190,"ELEMENT_SET_NO":999,"REV_AT_EPOCH":10101,"BSTAR":0.00018897374,"MEAN_MOTION_DOT":0.00002929,"MEAN_MOTION_DDOT":0},{"OBJECT_NAME":"JILIN-01 KUANFU 02B 3","OBJECT_ID":"2024-169C","EPOCH":"2026-07-21T14:05:17.420352","CLASSIFICATION_TYPE":"U","MEAN_MOTION":15.09087002,"ECCENTRICITY":0.00136873,"INCLINATION":97.5561,"RA_OF_ASC_NODE":291.4004,"ARG_OF_PERICENTER":183.5151,"MEAN_ANOMALY":176.5984,"EPHEMERIS_TYPE":0,"NORAD_CAT_ID":61191,"ELEMENT_SET_NO":999,"REV_AT_EPOCH":10101,"BSTAR":0.00022058965,"MEAN_MOTION_DOT":0.00003439,"MEAN_MOTION_DDOT":0},{"OBJECT_NAME":"JILIN-01 KUANFU 02B 4","OBJECT_ID":"2024-169D","EPOCH":"2026-07-21T14:55:53.029056","CLASSIFICATION_TYPE":"U","MEAN_MOTION":15.09072862,"ECCENTRICITY":0.00145603,"INCLINATION":97.5522,"RA_OF_ASC_NODE":290.9582,"ARG_OF_PERICENTER":142.8818,"MEAN_ANOMALY":217.342,"EPHEMERIS_TYPE":0,"NORAD_CAT_ID":61192,"ELEMENT_SET_NO":999,"REV_AT_EPOCH":10102,"BSTAR":0.0001798841,"MEAN_MOTION_DOT":0.00002792,"MEAN_MOTION_DDOT":0},{"OBJECT_NAME":"JILIN-01 KUANFU 02B 5","OBJECT_ID":"2024-169E","EPOCH":"2026-07-21T14:37:01.542432","CLASSIFICATION_TYPE":"U","MEAN_MOTION":15.09102016,"ECCENTRICITY":0.00137906,"INCLINATION":97.5569,"RA_OF_ASC_NODE":291.7466,"ARG_OF_PERICENTER":166.0906,"MEAN_ANOMALY":194.0706,"EPHEMERIS_TYPE":0,"NORAD_CAT_ID":61193,"ELEMENT_SET_NO":999,"REV_AT_EPOCH":10102,"BSTAR":0.00020958103,"MEAN_MOTION_DOT":0.00003266,"MEAN_MOTION_DDOT":0},{"OBJECT_NAME":"JILIN-01 KUANFU 02B 6","OBJECT_ID":"2024-169F","EPOCH":"2026-07-21T13:35:48.950592","CLASSIFICATION_TYPE":"U","MEAN_MOTION":15.09063124,"ECCENTRICITY":0.00161639,"INCLINATION":97.5552,"RA_OF_ASC_NODE":291.5952,"ARG_OF_PERICENTER":198.1727,"MEAN_ANOMALY":161.8926,"EPHEMERIS_TYPE":0,"NORAD_CAT_ID":61194,"ELEMENT_SET_NO":999,"REV_AT_EPOCH":10102,"BSTAR":0.00016907039,"MEAN_MOTION_DOT":0.00002621,"MEAN_MOTION_DDOT":0}]}
