JILIN-1 KUANFU 01       
1 45016U 20003A   26202.59340161  .00001986  00000+0  12298-3 0  9990
2 45016  97.5015 275.8781 0009877 174.9761 185.1570 15.10891044360525
JILIN-1 KUANFU-01B      
1 49003U 21061A   26202.63661459  .00001010  00000+0  66364-4 0  9998
2 49003  97.5188 278.1894 0005433 311.3984  48.6778 15.09821381278543
JILIN-1 KUANFU 01C      
1 52443U 22048A   26202.62939219  .00002219  00000+0  14152-3 0  9996
2 52443  97.5246 279.1737 0017869 197.1415 162.9213 15.09622372232398
JILIN-1 KUANFU 02A      
1 57696U 23127A   26202.57726666  .00003187  00000+0  19531-3 0  9995
2 57696  97.5563 295.9629 0010738 212.5259 147.5310 15.10846256160823
JILIN-01 KUANFU 02B 1   
1 61189U 24169A   26202.59843118  .00003446  00000+0  22148-3 0  9994
2 61189  97.5569 291.5949 0001115 297.8521  62.2594 15.09084274101010
JILIN-01 KUANFU 02B 2   
1 61190U 24169B   26202.57821305  .00002929  00000+0  18897-3 0  9999
2 61190  97.5565 290.9588 0004915 249.6170 110.4531 15.09047970101015
JILIN-01 KUANFU 02B 3   
1 61191U 24169C   26202.58700718  .00003439  00000+0  22059-3 0  9997
2 61191  97.5561 291.4004 0013687 183.5151 176.5984 15.09087002101017
JILIN-01 KUANFU 02B 4   
1 61192U 24169D   26202.62214154  .00002792  00000+0  17988-3 0  9993
2 61192  97.5522 290.9582 0014560 142.8818 217.3420 15.09072862101027
JILIN-01 KUANFU 02B 5   
1 61193U 24169E   26202.60904563  .00003266  00000+0  20958-3 0  9990
2 61193  97.5569 291.7466 0013790 166.0906 194.0706 15.09102016101022
JILIN-01 KUANFU 02B 6   
1 61194U 24169F   26202.56653878  .00002621  00000+0  16907-3 0  9999
2 61194  97.5552 291.5952 0016163 198.1727 161.8926 15.09063124101029
